ONEWEB-0210             
1 48787U 21045W   24209.46421245 -.00000076  00000+0 -23493-3 0  9999
2 48787  87.9017  36.4297 0001944  60.7230 299.4094 13.15548757154761
ONEWEB-0214             
1 48788U 21045X   24208.78920350 -.00000090  00000+0 -27316-3 0  9999
2 48788  87.9015  36.5529 0002107  71.4394 288.6965 13.15548727153517
ONEWEB-0221             
1 48789U 21045Y   24209.48004386 -.00000377  00000+0 -10349-2 0  9995
2 48789  87.9019  36.4341 0001554  82.8132 277.3175 13.15547450154830
ONEWEB-0213             
1 48790U 21045Z   24209.46895997 -.00000072  00000+0 -22426-3 0  9993
2 48790  87.9017  36.4493 0001590  76.8631 283.2676 13.15548902154885
ONEWEB-0212             
1 48791U 21045AA  24208.76147377  .00000076  00000+0  16874-3 0  9990
2 48791  87.9022  36.5740 0001765  90.5877 269.5455 13.15549165153655
ONEWEB-0227             
1 48792U 21045AB  24208.91279649  .00000057  00000+0  11657-3 0  9999
2 48792  87.9018  36.5591 0001632  84.3613 275.7703 13.15548740153627
ONEWEB-0226             
1 48793U 21045AC  24208.75434412  .00000083  00000+0  18669-3 0  9992
2 48793  87.9020  36.5969 0001748  70.2665 289.8654 13.15548840153575
ONEWEB-0224             
1 48794U 21045AD  24209.47846927 -.00000104  00000+0 -31131-3 0  9996
2 48794  87.9021  36.4752 0000805 114.6734 245.4480 13.15548521154717
